OBJECT_NAME,OBJECT_ID,EPOCH,MEAN_MOTION,ECCENTRICITY,INCLINATION,RA_OF_ASC_NODE,ARG_OF_PERICENTER,MEAN_ANOMALY,EPHEMERIS_TYPE,CLASSIFICATION_TYPE,NORAD_CAT_ID,ELEMENT_SET_NO,REV_AT_EPOCH,BSTAR,MEAN_MOTION_DOT,MEAN_MOTION_DDOT
IONOSFERA-M 2,2024-199B,2026-07-21T06:22:35.114880,14.22763287,.00007356,98.7126,74.9813,130.8521,229.2720,0,U,61736,999,13567,.2541625E-4,.13E-6,0
PRSC-EO1,2025-012A,2026-07-21T06:41:38.389056,15.17667849,.00071667,97.4207,274.0694,129.5422,230.6446,0,U,62725,999,8336,.27270428E-3,.5429E-4,0
BIOMASS,2025-090A,2026-07-21T03:03:23.026176,14.67531559,.00016647,98.0770,28.9450,74.9936,285.1453,0,U,63772,999,6566,.91984164E-4,.474E-5,0
GOSAT-GW (IBUKI GW),2025-141A,2026-07-21T06:44:27.909312,14.67554710,.00014318,98.0564,139.0440,85.0479,275.0889,0,U,64694,999,5684,.9858917E-5,.8E-7,0
IONOSFERA-M 3,2025-155A,2026-07-21T05:50:39.964704,14.21491536,.00024312,98.6045,163.2950,103.2387,256.9062,0,U,64876,999,5124,.32994958E-4,.29E-6,0
IONOSFERA-M 4,2025-155B,2026-07-21T06:40:45.184800,14.21493968,.0001894,98.6044,163.2460,93.3125,266.8270,0,U,64877,999,5124,.35376286E-4,.35E-6,0
MICROCARB,2025-156A,2026-07-21T02:54:26.093376,14.72889570,.00180577,98.0069,278.7398,152.4265,207.7904,0,U,64899,999,5296,.66364664E-4,.376E-5,0
CO3D 3,2025-156B,2026-07-21T05:13:56.419104,15.20201125,.00017185,97.4330,280.4220,90.2220,269.9212,0,U,64900,999,5470,.14874464E-3,.3154E-4,0
CO3D 4,2025-156C,2026-07-21T05:14:09.852576,15.20197027,.00019992,97.4332,280.4222,141.7459,218.3918,0,U,64901,999,5470,.14123555E-3,.2991E-4,0
CO3D 2,2025-156D,2026-07-21T06:00:55.679616,15.20206722,.00011841,97.4331,280.3529,92.3270,267.8101,0,U,64902,999,5470,.13995245E-3,.2964E-4,0
CO3D 1,2025-156E,2026-07-21T06:01:08.890176,15.20208789,.00013409,97.4333,280.3531,102.3568,257.7817,0,U,64903,999,5470,.14116009E-3,.299E-4,0
PRSC-S1,2025-164A,2026-07-21T01:44:57.786720,15.06667194,.00075063,41.1302,96.9320,233.1452,126.8674,0,U,65055,999,5354,.22278208E-3,.3189E-4,0
SENTINEL-6B,2025-264A,2026-07-20T23:17:55.874976,12.80930276,.00078384,66.0410,65.0102,268.4946,91.5171,0,U,66514,999,3149,.2035625E-5,-.61E-6,0
CAS500-3,2025-274F,2026-07-20T18:18:20.598624,14.88391224,.00058111,97.7433,129.0502,22.2923,337.8545,0,U,66655,999,3514,.74906058E-4,.64E-5,0
CSG-3,2026-001A,2026-07-21T02:08:37.871808,14.82165988,.00014673,97.8899,25.2020,92.6921,267.4460,0,U,67304,999,2948,.32426469E-4,.206E-5,0
PRSC-E03,2026-092A,2026-07-21T06:02:37.354272,15.06825181,.00049869,38.0002,248.7838,288.1917,71.8301,0,U,68835,999,1309,.95117693E-4,.1335E-4,0
CAS500-2,2026-100AK,2026-07-20T17:05:52.503936,15.19760392,.00081268,97.3850,98.9199,230.8249,129.2264,0,U,69013,999,1190,.15845192E-3,.3323E-4,0
