IONOSFERA-M 2           
1 61736U 24199B   26202.26568420  .00000013  00000+0  25416-4 0  9998
2 61736  98.7126  74.9813 0000735 130.8521 229.2720 14.22763287135673
PRSC-EO1                
1 62725U 25012A   26202.27891654  .00005429  00000+0  27270-3 0  9996
2 62725  97.4207 274.0694 0007166 129.5422 230.6446 15.17667849 83369
BIOMASS                 
1 63772U 25090A   26202.12734984  .00000474  00000+0  91984-4 0  9990
2 63772  98.0770  28.9450 0001664  74.9936 285.1453 14.67531559 65668
GOSAT-GW (IBUKI GW)     
1 64694U 25141A   26202.28087858  .00000008  00000+0  98589-5 0  9991
2 64694  98.0564 139.0440 0001431  85.0479 275.0889 14.67554710 56848
IONOSFERA-M 3           
1 64876U 25155A   26202.24351811  .00000029  00000+0  32995-4 0  9998
2 64876  98.6045 163.2950 0002431 103.2387 256.9062 14.21491536 51243
IONOSFERA-M 4           
1 64877U 25155B   26202.27830075  .00000035  00000+0  35376-4 0  9999
2 64877  98.6044 163.2460 0001894  93.3125 266.8270 14.21493968 51242
MICROCARB               
1 64899U 25156A   26202.12113534  .00000376  00000+0  66365-4 0  9992
2 64899  98.0069 278.7398 0018057 152.4265 207.7904 14.72889570 52962
CO3D 3                  
1 64900U 25156B   26202.21801411  .00003154  00000+0  14874-3 0  9997
2 64900  97.4330 280.4220 0001718  90.2220 269.9212 15.20201125 54703
CO3D 4                  
1 64901U 25156C   26202.21816959  .00002991  00000+0  14124-3 0  9997
2 64901  97.4332 280.4222 0001999 141.7459 218.3918 15.20197027 54701
CO3D 2                  
1 64902U 25156D   26202.25064444  .00002964  00000+0  13995-3 0  9991
2 64902  97.4331 280.3529 0001184  92.3270 267.8101 15.20206722 54704
CO3D 1                  
1 64903U 25156E   26202.25079734  .00002990  00000+0  14116-3 0  9995
2 64903  97.4333 280.3531 0001340 102.3568 257.7817 15.20208789 54703
PRSC-S1                 
1 65055U 25164A   26202.07289105  .00003189  00000+0  22278-3 0  9997
2 65055  41.1302  96.9320 0007506 233.1452 126.8674 15.06667194 53547
SENTINEL-6B             
1 66514U 25264A   26201.97078559 -.00000061  00000+0  20356-5 0  9990
2 66514  66.0410  65.0102 0007838 268.4946  91.5171 12.80930276 31499
CAS500-3                
1 66655U 25274F   26201.76273841  .00000640  00000+0  74906-4 0  9996
2 66655  97.7433 129.0502 0005811  22.2923 337.8545 14.88391224 35147
CSG-3                   
1 67304U 26001A   26202.08932722  .00000206  00000+0  32426-4 0  9992
2 67304  97.8899  25.2020 0001467  92.6921 267.4460 14.82165988 29484
PRSC-E03                
1 68835U 26092A   26202.25182123  .00001335  00000+0  95118-4 0  9994
2 68835  38.0002 248.7838 0004986 288.1917  71.8301 15.06825181 13098
CAS500-2                
1 69013U 26100AK  26201.71241324  .00003323  00000+0  15845-3 0  9999
2 69013  97.3850  98.9199 0008126 230.8249 129.2264 15.19760392 11903
